[{"OBJECT_NAME":"LEMUR-2-MARIO-SOUSA","OBJECT_ID":"2026-004C","EPOCH":"2026-03-09T22:28:14.080512","MEAN_MOTION":14.87588153,"ECCENTRICITY":0.00102095,"INCLINATION":97.8003,"RA_OF_ASC_NODE":69.0866,"ARG_OF_PERICENTER":105.1943,"MEAN_ANOMALY":255.0403,"EPHEMERIS_TYPE":0,"CLASSIFICATION_TYPE":"U","NORAD_CAT_ID":67365,"ELEMENT_SET_NO":999,"REV_AT_EPOCH":853,"BSTAR":0.00075901318,"MEAN_MOTION_DOT":6.852e-5,"MEAN_MOTION_DDOT":0},{"OBJECT_NAME":"OPS 0340","OBJECT_ID":"1966-026A","EPOCH":"2026-03-09T21:24:39.157632","MEAN_MOTION":14.60625581,"ECCENTRICITY":0.01463871,"INCLINATION":98.0227,"RA_OF_ASC_NODE":240.1512,"ARG_OF_PERICENTER":195.7309,"MEAN_ANOMALY":163.932,"EPHEMERIS_TYPE":0,"CLASSIFICATION_TYPE":"U","NORAD_CAT_ID":2125,"ELEMENT_SET_NO":999,"REV_AT_EPOCH":14505,"BSTAR":0.00028150195,"MEAN_MOTION_DOT":1.54e-5,"MEAN_MOTION_DDOT":0}]
